[{"OBJECT_NAME":"STARLINK-30235","OBJECT_ID":"2023-096E","EPOCH":"2026-03-09T22:00:01.999584","MEAN_MOTION":15.1666611,"ECCENTRICITY":0.00012493,"INCLINATION":42.9991,"RA_OF_ASC_NODE":221.1883,"ARG_OF_PERICENTER":288.6797,"MEAN_ANOMALY":312.541,"EPHEMERIS_TYPE":0,"CLASSIFICATION_TYPE":"U","NORAD_CAT_ID":57294,"ELEMENT_SET_NO":999,"REV_AT_EPOCH":578,"BSTAR":0.0049850557,"MEAN_MOTION_DOT":0.00100537,"MEAN_MOTION_DDOT":0},{"OBJECT_NAME":"OBJECT Q","OBJECT_ID":"2024-205Q","EPOCH":"2026-03-09T08:02:25.893024","MEAN_MOTION":15.17509239,"ECCENTRICITY":0.00132024,"INCLINATION":97.4206,"RA_OF_ASC_NODE":142.9783,"ARG_OF_PERICENTER":51.3231,"MEAN_ANOMALY":308.9181,"EPHEMERIS_TYPE":0,"CLASSIFICATION_TYPE":"U","NORAD_CAT_ID":61908,"ELEMENT_SET_NO":999,"REV_AT_EPOCH":7319,"BSTAR":0.00052829629,"MEAN_MOTION_DOT":0.00010555,"MEAN_MOTION_DDOT":0}]
